{"fetched_at":"2026-07-21T07:06:55.004Z","source":"https://celestrak.org/NORAD/elements/gp.php?NAME=HULIANWANG&FORMAT=JSON","constellation":"guowang","records":[{"OBJECT_NAME":"HULIANWANG DIGUI-76","OBJECT_ID":"2025-187D","EPOCH":"2026-07-20T22:02:10.986144","CLASSIFICATION_TYPE":"U","MEAN_MOTION":13.29324061,"ECCENTRICITY":0.00000987,"INCLINATION":50.0014,"RA_OF_ASC_NODE":85.0182,"ARG_OF_PERICENTER":71.4573,"MEAN_ANOMALY":288.631,"EPHEMERIS_TYPE":0,"NORAD_CAT_ID":65308,"ELEMENT_SET_NO":999,"REV_AT_EPOCH":4418,"BSTAR":0.000055941983,"MEAN_MOTION_DOT":-9.8e-7,"MEAN_MOTION_DDOT":0},{"OBJECT_NAME":"HULIANWANG DIGUI-77","OBJECT_ID":"2025-187E","EPOCH":"2026-07-20T21:50:00.390336","CLASSIFICATION_TYPE":"U","MEAN_MOTION":13.29323926,"ECCENTRICITY":0.00001474,"INCLINATION":50.0049,"RA_OF_ASC_NODE":85.0636,"ARG_OF_PERICENTER":183.348,"MEAN_ANOMALY":176.7391,"EPHEMERIS_TYPE":0,"NORAD_CAT_ID":65309,"ELEMENT_SET_NO":999,"REV_AT_EPOCH":4418,"BSTAR":0.00004825242,"MEAN_MOTION_DOT":-0.00000102,"MEAN_MOTION_DDOT":0},{"OBJECT_NAME":"HULIANWANG DIGUI-78","OBJECT_ID":"2025-187F","EPOCH":"2026-07-20T22:38:17.546496","CLASSIFICATION_TYPE":"U","MEAN_MOTION":13.2932299,"ECCENTRICITY":0.00000816,"INCLINATION":50.0114,"RA_OF_ASC_NODE":84.7498,"ARG_OF_PERICENTER":11.8229,"MEAN_ANOMALY":348.2645,"EPHEMERIS_TYPE":0,"NORAD_CAT_ID":65310,"ELEMENT_SET_NO":999,"REV_AT_EPOCH":4419,"BSTAR":0.0000510019,"MEAN_MOTION_DOT":-0.000001,"MEAN_MOTION_DDOT":0},{"OBJECT_NAME":"HULIANWANG DIGUI-79","OBJECT_ID":"2025-187G","EPOCH":"2026-07-20T22:14:08.192544","CLASSIFICATION_TYPE":"U","MEAN_MOTION":13.29319815,"ECCENTRICITY":0.00000993,"INCLINATION":50.0044,"RA_OF_ASC_NODE":85.1376,"ARG_OF_PERICENTER":352.2614,"MEAN_ANOMALY":7.8256,"EPHEMERIS_TYPE":0,"NORAD_CAT_ID":65311,"ELEMENT_SET_NO":999,"REV_AT_EPOCH":4418,"BSTAR":0.000047173056,"MEAN_MOTION_DOT":-0.00000102,"MEAN_MOTION_DDOT":0},{"OBJECT_NAME":"HULIANWANG DIGUI-80","OBJECT_ID":"2025-187H","EPOCH":"2026-07-20T21:38:00.477024","CLASSIFICATION_TYPE":"U","MEAN_MOTION":13.29323038,"ECCENTRICITY":0.0000125,"INCLINATION":50.0034,"RA_OF_ASC_NODE":84.9836,"ARG_OF_PERICENTER":186.1351,"MEAN_ANOMALY":173.9519,"EPHEMERIS_TYPE":0,"NORAD_CAT_ID":65312,"ELEMENT_SET_NO":999,"REV_AT_EPOCH":4418,"BSTAR":0.000053575663,"MEAN_MOTION_DOT":-9.9e-7,"MEAN_MOTION_DDOT":0},{"OBJECT_NAME":"HULIANWANG DIGUI-81","OBJECT_ID":"2025-187J","EPOCH":"2026-07-20T21:14:04.898688","CLASSIFICATION_TYPE":"U","MEAN_MOTION":13.29319855,"ECCENTRICITY":0.00000721,"INCLINATION":50.0074,"RA_OF_ASC_NODE":85.0018,"ARG_OF_PERICENTER":358.5666,"MEAN_ANOMALY":1.5206,"EPHEMERIS_TYPE":0,"NORAD_CAT_ID":65313,"ELEMENT_SET_NO":999,"REV_AT_EPOCH":4419,"BSTAR":0.000065195397,"MEAN_MOTION_DOT":-9.4e-7,"MEAN_MOTION_DDOT":0},{"OBJECT_NAME":"HULIANWANG DIGUI-82","OBJECT_ID":"2025-220A","EPOCH":"2026-07-20T22:25:31.403136","CLASSIFICATION_TYPE":"U","MEAN_MOTION":13.24409651,"ECCENTRICITY":0.00022518,"INCLINATION":86.4952,"RA_OF_ASC_NODE":32.4595,"ARG_OF_PERICENTER":98.3778,"MEAN_ANOMALY":261.7612,"EPHEMERIS_TYPE":0,"NORAD_CAT_ID":65817,"ELEMENT_SET_NO":999,"REV_AT_EPOCH":3938,"BSTAR":0.000044397697,"MEAN_MOTION_DOT":3.4e-7,"MEAN_MOTION_DDOT":0},{"OBJECT_NAME":"HULIANWANG DIGUI-83","OBJECT_ID":"2025-220B","EPOCH":"2026-07-20T22:14:44.258496","CLASSIFICATION_TYPE":"U","MEAN_MOTION":13.24409902,"ECCENTRICITY":0.00022621,"INCLINATION":86.4975,"RA_OF_ASC_NODE":32.5224,"ARG_OF_PERICENTER":97.5522,"MEAN_ANOMALY":262.5869,"EPHEMERIS_TYPE":0,"NORAD_CAT_ID":65818,"ELEMENT_SET_NO":999,"REV_AT_EPOCH":3938,"BSTAR":0.000017917345,"MEAN_MOTION_DOT":2.2e-7,"MEAN_MOTION_DDOT":0},{"OBJECT_NAME":"HULIANWANG DIGUI-84","OBJECT_ID":"2025-220C","EPOCH":"2026-07-20T22:03:48.346848","CLASSIFICATION_TYPE":"U","MEAN_MOTION":13.24409704,"ECCENTRICITY":0.00022052,"INCLINATION":86.4912,"RA_OF_ASC_NODE":32.3328,"ARG_OF_PERICENTER":97.8474,"MEAN_ANOMALY":262.291,"EPHEMERIS_TYPE":0,"NORAD_CAT_ID":65819,"ELEMENT_SET_NO":999,"REV_AT_EPOCH":3938,"BSTAR":-0.000009968667,"MEAN_MOTION_DOT":1e-7,"MEAN_MOTION_DDOT":0},{"OBJECT_NAME":"HULIANWANG DIGUI-85","OBJECT_ID":"2025-220D","EPOCH":"2026-07-20T21:52:55.746048","CLASSIFICATION_TYPE":"U","MEAN_MOTION":13.24408716,"ECCENTRICITY":0.00022019,"INCLINATION":86.4973,"RA_OF_ASC_NODE":32.5102,"ARG_OF_PERICENTER":100.583,"MEAN_ANOMALY":259.5552,"EPHEMERIS_TYPE":0,"NORAD_CAT_ID":65820,"ELEMENT_SET_NO":999,"REV_AT_EPOCH":3938,"BSTAR":-0.000019820561,"MEAN_MOTION_DOT":6e-8,"MEAN_MOTION_DDOT":0},{"OBJECT_NAME":"HULIANWANG DIGUI-86","OBJECT_ID":"2025-220E","EPOCH":"2026-07-20T21:42:14.305536","CLASSIFICATION_TYPE":"U","MEAN_MOTION":13.24411522,"ECCENTRICITY":0.00020285,"INCLINATION":86.4953,"RA_OF_ASC_NODE":32.4432,"ARG_OF_PERICENTER":84.9141,"MEAN_ANOMALY":275.2224,"EPHEMERIS_TYPE":0,"NORAD_CAT_ID":65821,"ELEMENT_SET_NO":999,"REV_AT_EPOCH":3938,"BSTAR":-0.000034895362,"MEAN_MOTION_DOT":0,"MEAN_MOTION_DDOT":0},{"OBJECT_NAME":"HULIANWANG DIGUI-87","OBJECT_ID":"2025-231A","EPOCH":"2026-07-20T20:17:30.672960","CLASSIFICATION_TYPE":"U","MEAN_MOTION":13.29328376,"ECCENTRICITY":0.00004501,"INCLINATION":50.001,"RA_OF_ASC_NODE":55.114,"ARG_OF_PERICENTER":12.9466,"MEAN_ANOMALY":347.1417,"EPHEMERIS_TYPE":0,"NORAD_CAT_ID":65995,"ELEMENT_SET_NO":999,"REV_AT_EPOCH":3736,"BSTAR":0.000021114599,"MEAN_MOTION_DOT":-0.00000114,"MEAN_MOTION_DDOT":0},{"OBJECT_NAME":"HULIANWANG DIGUI-88","OBJECT_ID":"2025-231B","EPOCH":"2026-07-20T20:29:35.922336","CLASSIFICATION_TYPE":"U","MEAN_MOTION":13.29323981,"ECCENTRICITY":0.00004704,"INCLINATION":49.9997,"RA_OF_ASC_NODE":55.1303,"ARG_OF_PERICENTER":355.4551,"MEAN_ANOMALY":4.6317,"EPHEMERIS_TYPE":0,"NORAD_CAT_ID":65996,"ELEMENT_SET_NO":999,"REV_AT_EPOCH":3736,"BSTAR":0.000027282036,"MEAN_MOTION_DOT":-0.00000111,"MEAN_MOTION_DDOT":0},{"OBJECT_NAME":"HULIANWANG DIGUI-89","OBJECT_ID":"2025-231C","EPOCH":"2026-07-20T20:05:27.267360","CLASSIFICATION_TYPE":"U","MEAN_MOTION":13.29328227,"ECCENTRICITY":0.00005021,"INCLINATION":49.9973,"RA_OF_ASC_NODE":54.9945,"ARG_OF_PERICENTER":2.4742,"MEAN_ANOMALY":357.6133,"EPHEMERIS_TYPE":0,"NORAD_CAT_ID":65997,"ELEMENT_SET_NO":999,"REV_AT_EPOCH":3736,"BSTAR":0.000019785093,"MEAN_MOTION_DOT":-0.00000115,"MEAN_MOTION_DDOT":0},{"OBJECT_NAME":"HULIANWANG DIGUI-90","OBJECT_ID":"2025-231D","EPOCH":"2026-07-20T21:41:47.644224","CLASSIFICATION_TYPE":"U","MEAN_MOTION":13.29326603,"ECCENTRICITY":0.00004936,"INCLINATION":50.0003,"RA_OF_ASC_NODE":54.7453,"ARG_OF_PERICENTER":356.7789,"MEAN_ANOMALY":3.308,"EPHEMERIS_TYPE":0,"NORAD_CAT_ID":65998,"ELEMENT_SET_NO":999,"REV_AT_EPOCH":3737,"BSTAR":0.00002566555,"MEAN_MOTION_DOT":-0.00000112,"MEAN_MOTION_DDOT":0},{"OBJECT_NAME":"HULIANWANG DIGUI-91","OBJECT_ID":"2025-231E","EPOCH":"2026-07-20T19:41:29.882400","CLASSIFICATION_TYPE":"U","MEAN_MOTION":13.29327206,"ECCENTRICITY":0.00004861,"INCLINATION":50.0021,"RA_OF_ASC_NODE":55.0148,"ARG_OF_PERICENTER":357.9773,"MEAN_ANOMALY":2.1098,"EPHEMERIS_TYPE":0,"NORAD_CAT_ID":65999,"ELEMENT_SET_NO":999,"REV_AT_EPOCH":3736,"BSTAR":0.000023223802,"MEAN_MOTION_DOT":-0.00000113,"MEAN_MOTION_DDOT":0}]}
