HULIANWANG DIGUI-76     
1 65308U 25187D   26201.91818271 -.00000098  00000+0  55942-4 0  9999
2 65308  50.0014  85.0182 0000098  71.4573 288.6310 13.29324061 44188
HULIANWANG DIGUI-77     
1 65309U 25187E   26201.90972674 -.00000102  00000+0  48252-4 0  9999
2 65309  50.0049  85.0636 0000147 183.3480 176.7391 13.29323926 44181
HULIANWANG DIGUI-78     
1 65310U 25187F   26201.94325864 -.00000100  00000+0  51002-4 0  9993
2 65310  50.0114  84.7498 0000081  11.8229 348.2645 13.29322990 44190
HULIANWANG DIGUI-79     
1 65311U 25187G   26201.92648371 -.00000102  00000+0  47173-4 0  9999
2 65311  50.0044  85.1376 0000099 352.2614   7.8256 13.29319815 44189
HULIANWANG DIGUI-80     
1 65312U 25187H   26201.90139441 -.00000099  00000+0  53576-4 0  9990
2 65312  50.0034  84.9836 0000125 186.1351 173.9519 13.29323038 44188
HULIANWANG DIGUI-81     
1 65313U 25187J   26201.88477892 -.00000094  00000+0  65195-4 0  9998
2 65313  50.0074  85.0018 0000072 358.5666   1.5206 13.29319855 44194
HULIANWANG DIGUI-82     
1 65817U 25220A   26201.93439124  .00000034  00000+0  44398-4 0  9992
2 65817  86.4952  32.4595 0002251  98.3778 261.7612 13.24409651 39386
HULIANWANG DIGUI-83     
1 65818U 25220B   26201.92690114  .00000022  00000+0  17917-4 0  9994
2 65818  86.4975  32.5224 0002262  97.5522 262.5869 13.24409902 39384
HULIANWANG DIGUI-84     
1 65819U 25220C   26201.91930957  .00000010  00000+0 -99687-5 0  9999
2 65819  86.4912  32.3328 0002205  97.8474 262.2910 13.24409704 39389
HULIANWANG DIGUI-85     
1 65820U 25220D   26201.91175632  .00000006  00000+0 -19821-4 0  9998
2 65820  86.4973  32.5102 0002201 100.5830 259.5552 13.24408716 39387
HULIANWANG DIGUI-86     
1 65821U 25220E   26201.90433224  .00000000  00000+0 -34895-4 0  9994
2 65821  86.4953  32.4432 0002028  84.9141 275.2224 13.24411522 39388
HULIANWANG DIGUI-87     
1 65995U 25231A   26201.84549390 -.00000114  00000+0  21115-4 0  9990
2 65995  50.0010  55.1140 0000450  12.9466 347.1417 13.29328376 37365
HULIANWANG DIGUI-88     
1 65996U 25231B   26201.85388799 -.00000111  00000+0  27282-4 0  9994
2 65996  49.9997  55.1303 0000470 355.4551   4.6317 13.29323981 37361
HULIANWANG DIGUI-89     
1 65997U 25231C   26201.83712115 -.00000115  00000+0  19785-4 0  9999
2 65997  49.9973  54.9945 0000502   2.4742 357.6133 13.29328227 37367
HULIANWANG DIGUI-90     
1 65998U 25231D   26201.90402366 -.00000112  00000+0  25666-4 0  9994
2 65998  50.0003  54.7453 0000493 356.7789   3.3080 13.29326603 37375
HULIANWANG DIGUI-91     
1 65999U 25231E   26201.82048475 -.00000113  00000+0  23224-4 0  9992
2 65999  50.0021  55.0148 0000486 357.9773   2.1098 13.29327206 37364
